STARLINK-31892          
1 59853U 24097U   26068.55491966 -.00000933  00000+0 -24376-4 0  9991
2 59853  43.0015 275.3387 0001318 275.6883  84.3818 15.27575099101893
FLOCK 4G-3              
1 62639U 25009AG  26068.80174065  .00011494  00000+0  43389-3 0  9993
2 62639  97.4062 151.4068 0001320 293.2042  66.9058 15.27179310 63727
